[{"OBJECT_NAME":"ONEWEB-0232","OBJECT_ID":"2021-045Q","EPOCH":"2025-12-23T01:45:09.385920","MEAN_MOTION":13.15549242,"ECCENTRICITY":0.00018243,"INCLINATION":87.9022,"RA_OF_ASC_NODE":294.3056,"ARG_OF_PERICENTER":75.1004,"MEAN_ANOMALY":285.0329,"EPHEMERIS_TYPE":0,"CLASSIFICATION_TYPE":"U","NORAD_CAT_ID":48781,"ELEMENT_SET_NO":999,"REV_AT_EPOCH":22149,"BSTAR":-2.8266822e-5,"MEAN_MOTION_DOT":2.0e-8,"MEAN_MOTION_DDOT":0},{"OBJECT_NAME":"ONEWEB-0231","OBJECT_ID":"2021-045R","EPOCH":"2025-12-23T06:41:46.152960","MEAN_MOTION":13.15548878,"ECCENTRICITY":0.00019611,"INCLINATION":87.9004,"RA_OF_ASC_NODE":294.3049,"ARG_OF_PERICENTER":70.6355,"MEAN_ANOMALY":289.4987,"EPHEMERIS_TYPE":0,"CLASSIFICATION_TYPE":"U","NORAD_CAT_ID":48782,"ELEMENT_SET_NO":999,"REV_AT_EPOCH":22121,"BSTAR":9.1419127e-5,"MEAN_MOTION_DOT":4.7e-7,"MEAN_MOTION_DDOT":0},{"OBJECT_NAME":"ONEWEB-0234","OBJECT_ID":"2021-045S","EPOCH":"2025-12-23T02:07:45.791616","MEAN_MOTION":13.15548989,"ECCENTRICITY":9.291e-5,"INCLINATION":87.9,"RA_OF_ASC_NODE":294.3174,"ARG_OF_PERICENTER":83.6435,"MEAN_ANOMALY":276.4802,"EPHEMERIS_TYPE":0,"CLASSIFICATION_TYPE":"U","NORAD_CAT_ID":48783,"ELEMENT_SET_NO":999,"REV_AT_EPOCH":22132,"BSTAR":-0.00040129595,"MEAN_MOTION_DOT":-1.38e-6,"MEAN_MOTION_DDOT":0},{"OBJECT_NAME":"ONEWEB-0238","OBJECT_ID":"2021-045T","EPOCH":"2025-12-23T02:08:10.144320","MEAN_MOTION":13.15548378,"ECCENTRICITY":0.00013754,"INCLINATION":87.9004,"RA_OF_ASC_NODE":294.3103,"ARG_OF_PERICENTER":80.0779,"MEAN_ANOMALY":280.0507,"EPHEMERIS_TYPE":0,"CLASSIFICATION_TYPE":"U","NORAD_CAT_ID":48784,"ELEMENT_SET_NO":999,"REV_AT_EPOCH":22122,"BSTAR":-0.00021366587,"MEAN_MOTION_DOT":-6.8e-7,"MEAN_MOTION_DDOT":0},{"OBJECT_NAME":"ONEWEB-0240","OBJECT_ID":"2021-045U","EPOCH":"2025-12-22T21:10:10.231104","MEAN_MOTION":13.15547767,"ECCENTRICITY":0.0001723,"INCLINATION":87.9012,"RA_OF_ASC_NODE":294.3481,"ARG_OF_PERICENTER":65.8603,"MEAN_ANOMALY":294.2707,"EPHEMERIS_TYPE":0,"CLASSIFICATION_TYPE":"U","NORAD_CAT_ID":48785,"ELEMENT_SET_NO":999,"REV_AT_EPOCH":22122,"BSTAR":-0.00078577,"MEAN_MOTION_DOT":-2.83e-6,"MEAN_MOTION_DDOT":0},{"OBJECT_NAME":"ONEWEB-0246","OBJECT_ID":"2021-045V","EPOCH":"2025-12-22T06:26:00.213792","MEAN_MOTION":13.15551192,"ECCENTRICITY":0.00019523,"INCLINATION":87.9014,"RA_OF_ASC_NODE":294.4805,"ARG_OF_PERICENTER":75.2922,"MEAN_ANOMALY":284.8425,"EPHEMERIS_TYPE":0,"CLASSIFICATION_TYPE":"U","NORAD_CAT_ID":48786,"ELEMENT_SET_NO":999,"REV_AT_EPOCH":22101,"BSTAR":0.00022511544,"MEAN_MOTION_DOT":9.8e-7,"MEAN_MOTION_DDOT":0},{"OBJECT_NAME":"ONEWEB-0210","OBJECT_ID":"2021-045W","EPOCH":"2025-12-23T05:33:17.944416","MEAN_MOTION":13.15548598,"ECCENTRICITY":0.00023994,"INCLINATION":87.9013,"RA_OF_ASC_NODE":294.2868,"ARG_OF_PERICENTER":68.182,"MEAN_ANOMALY":291.9565,"EPHEMERIS_TYPE":0,"CLASSIFICATION_TYPE":"U","NORAD_CAT_ID":48787,"ELEMENT_SET_NO":999,"REV_AT_EPOCH":22118,"BSTAR":-0.00087647634,"MEAN_MOTION_DOT":-3.17e-6,"MEAN_MOTION_DDOT":0},{"OBJECT_NAME":"ONEWEB-0214","OBJECT_ID":"2021-045X","EPOCH":"2025-12-23T02:06:49.623840","MEAN_MOTION":13.15548003,"ECCENTRICITY":0.00022406,"INCLINATION":87.9022,"RA_OF_ASC_NODE":294.3082,"ARG_OF_PERICENTER":75.1722,"MEAN_ANOMALY":284.9657,"EPHEMERIS_TYPE":0,"CLASSIFICATION_TYPE":"U","NORAD_CAT_ID":48788,"ELEMENT_SET_NO":999,"REV_AT_EPOCH":22113,"BSTAR":-0.00047206673,"MEAN_MOTION_DOT":-1.65e-6,"MEAN_MOTION_DDOT":0},{"OBJECT_NAME":"ONEWEB-0221","OBJECT_ID":"2021-045Y","EPOCH":"2025-12-23T02:17:04.733952","MEAN_MOTION":13.15549651,"ECCENTRICITY":0.00018819,"INCLINATION":87.9007,"RA_OF_ASC_NODE":294.3204,"ARG_OF_PERICENTER":69.0998,"MEAN_ANOMALY":291.0334,"EPHEMERIS_TYPE":0,"CLASSIFICATION_TYPE":"U","NORAD_CAT_ID":48789,"ELEMENT_SET_NO":999,"REV_AT_EPOCH":22122,"BSTAR":-0.00036103863,"MEAN_MOTION_DOT":-1.23e-6,"MEAN_MOTION_DDOT":0},{"OBJECT_NAME":"ONEWEB-0213","OBJECT_ID":"2021-045Z","EPOCH":"2025-12-23T02:01:05.734560","MEAN_MOTION":13.15546138,"ECCENTRICITY":0.0002013,"INCLINATION":87.9005,"RA_OF_ASC_NODE":294.3296,"ARG_OF_PERICENTER":69.7546,"MEAN_ANOMALY":290.3801,"EPHEMERIS_TYPE":0,"CLASSIFICATION_TYPE":"U","NORAD_CAT_ID":48790,"ELEMENT_SET_NO":999,"REV_AT_EPOCH":22128,"BSTAR":-0.00030323634,"MEAN_MOTION_DOT":-1.01e-6,"MEAN_MOTION_DDOT":0},{"OBJECT_NAME":"ONEWEB-0212","OBJECT_ID":"2021-045AA","EPOCH":"2025-12-23T05:07:04.042272","MEAN_MOTION":13.15546166,"ECCENTRICITY":0.00017361,"INCLINATION":87.9011,"RA_OF_ASC_NODE":294.2943,"ARG_OF_PERICENTER":77.8534,"MEAN_ANOMALY":282.2791,"EPHEMERIS_TYPE":0,"CLASSIFICATION_TYPE":"U","NORAD_CAT_ID":48791,"ELEMENT_SET_NO":999,"REV_AT_EPOCH":22129,"BSTAR":0.00029533112,"MEAN_MOTION_DOT":1.24e-6,"MEAN_MOTION_DDOT":0},{"OBJECT_NAME":"ONEWEB-0227","OBJECT_ID":"2021-045AB","EPOCH":"2025-12-23T05:05:55.812192","MEAN_MOTION":13.15548952,"ECCENTRICITY":0.00017498,"INCLINATION":87.8998,"RA_OF_ASC_NODE":294.3037,"ARG_OF_PERICENTER":73.7018,"MEAN_ANOMALY":286.4305,"EPHEMERIS_TYPE":0,"CLASSIFICATION_TYPE":"U","NORAD_CAT_ID":48792,"ELEMENT_SET_NO":999,"REV_AT_EPOCH":22124,"BSTAR":-0.00017675901,"MEAN_MOTION_DOT":-5.4e-7,"MEAN_MOTION_DDOT":0},{"OBJECT_NAME":"ONEWEB-0226","OBJECT_ID":"2021-045AC","EPOCH":"2025-12-23T06:46:20.085888","MEAN_MOTION":13.15548056,"ECCENTRICITY":0.00020639,"INCLINATION":87.8999,"RA_OF_ASC_NODE":294.2994,"ARG_OF_PERICENTER":69.8221,"MEAN_ANOMALY":290.3132,"EPHEMERIS_TYPE":0,"CLASSIFICATION_TYPE":"U","NORAD_CAT_ID":48793,"ELEMENT_SET_NO":999,"REV_AT_EPOCH":22122,"BSTAR":0.00064265828,"MEAN_MOTION_DOT":2.55e-6,"MEAN_MOTION_DDOT":0},{"OBJECT_NAME":"ONEWEB-0224","OBJECT_ID":"2021-045AD","EPOCH":"2025-12-23T05:53:49.812288","MEAN_MOTION":13.1554932,"ECCENTRICITY":0.00012456,"INCLINATION":87.9001,"RA_OF_ASC_NODE":294.3423,"ARG_OF_PERICENTER":44.9499,"MEAN_ANOMALY":315.1732,"EPHEMERIS_TYPE":0,"CLASSIFICATION_TYPE":"U","NORAD_CAT_ID":48794,"ELEMENT_SET_NO":999,"REV_AT_EPOCH":22114,"BSTAR":-0.00076404952,"MEAN_MOTION_DOT":-2.75e-6,"MEAN_MOTION_DDOT":0},{"OBJECT_NAME":"ONEWEB-0233","OBJECT_ID":"2021-045AE","EPOCH":"2025-12-23T06:00:28.389312","MEAN_MOTION":13.1554841,"ECCENTRICITY":0.00018215,"INCLINATION":87.9003,"RA_OF_ASC_NODE":294.3513,"ARG_OF_PERICENTER":66.4113,"MEAN_ANOMALY":293.7209,"EPHEMERIS_TYPE":0,"CLASSIFICATION_TYPE":"U","NORAD_CAT_ID":48795,"ELEMENT_SET_NO":999,"REV_AT_EPOCH":22116,"BSTAR":-0.00082905014,"MEAN_MOTION_DOT":-2.99e-6,"MEAN_MOTION_DDOT":0},{"OBJECT_NAME":"ONEWEB-0190","OBJECT_ID":"2021-045AF","EPOCH":"2025-12-23T02:03:23.670432","MEAN_MOTION":13.15550203,"ECCENTRICITY":0.00022655,"INCLINATION":87.9007,"RA_OF_ASC_NODE":294.3457,"ARG_OF_PERICENTER":58.3093,"MEAN_ANOMALY":301.8258,"EPHEMERIS_TYPE":0,"CLASSIFICATION_TYPE":"U","NORAD_CAT_ID":48796,"ELEMENT_SET_NO":999,"REV_AT_EPOCH":22121,"BSTAR":-6.360468e-5,"MEAN_MOTION_DOT":-1.1e-7,"MEAN_MOTION_DDOT":0}]
